THEOS1                   
1 33396U 08049A   23257.11601157  .00000122  00000+0  77601-4 0  9995
2 33396  98.6965 51.4000 0001231  0.0000 360.0000 14.20038023775053  
THEOS2                  
1 33396U 08049A   23257.11601157  .00000122  00000+0  77601-4 0  9995
2 33396  98.6965 102.8877 0001231  0.0000 360.0000 14.20038023775053 
THEOS3                  
1 33396U 08049A   23257.11601157  .00000122  00000+0  77601-4 0  9995
2 33396  98.6965 154.2877 0001231  0.0000 360.0000 14.20038023775053 
THEOS4                  
1 33396U 08049A   23257.11601157  .00000122  00000+0  77601-4 0  9995
2 33396  98.6965 205.6877 0001231  0.0000 360.0000 14.20038023775053 
THEOS5                   
1 33396U 08049A   23257.11601157  .00000122  00000+0  77601-4 0  9995
2 33396  98.6965 257.0877 0001231  0.0000 360.0000 14.20038023775053 
THEOS6                  
1 33396U 08049A   23257.11601157  .00000122  00000+0  77601-4 0  9995
2 33396  98.6965 308.4877 0001231  0.0000 360.0000 14.20038023775053 
THEOS7                  
1 33396U 08049A   23257.11601157  .00000122  00000+0  77601-4 0  9995
2 33396  98.6965 359.8877 0001231  0.0000 360.0000 14.20038023775053 
THEOS8                   
1 33396U 08049A   23257.11601157  .00000122  00000+0  77601-4 0  9995
2 33396  98.6965 51.4000 0001231  0.0000 240.0000 14.20038023775053  
THEOS9                  
1 33396U 08049A   23257.11601157  .00000122  00000+0  77601-4 0  9995
2 33396  98.6965 102.8877 0001231  0.0000 240.0000 14.20038023775053 
THEOS10                  
1 33396U 08049A   23257.11601157  .00000122  00000+0  77601-4 0  9995
2 33396  98.6965 154.2877 0001231  0.0000 240.0000 14.20038023775053 
THEOS11                  
1 33396U 08049A   23257.11601157  .00000122  00000+0  77601-4 0  9995
2 33396  98.6965 205.6877 0001231  0.0000 240.0000 14.20038023775053 
THEOS12                   
1 33396U 08049A   23257.11601157  .00000122  00000+0  77601-4 0  9995
2 33396  98.6965 257.0877 0001231  0.0000 240.0000 14.20038023775053 
THEOS13                  
1 33396U 08049A   23257.11601157  .00000122  00000+0  77601-4 0  9995
2 33396  98.6965 308.4877 0001231  0.0000 240.0000 14.20038023775053 
THEOS14                  
1 33396U 08049A   23257.11601157  .00000122  00000+0  77601-4 0  9995
2 33396  98.6965 359.8877 0001231  0.0000 240.0000 14.20038023775053 
THEOS15                   
1 33396U 08049A   23257.11601157  .00000122  00000+0  77601-4 0  9995
2 33396  98.6965 51.4000 0001231  0.0000 300.0000 14.20038023775053  
THEOS16                  
1 33396U 08049A   23257.11601157  .00000122  00000+0  77601-4 0  9995
2 33396  98.6965 102.8877 0001231  0.0000 300.0000 14.20038023775053 
THEOS17                  
1 33396U 08049A   23257.11601157  .00000122  00000+0  77601-4 0  9995
2 33396  98.6965 154.2877 0001231  0.0000 300.0000 14.20038023775053 
THEOS18                  
1 33396U 08049A   23257.11601157  .00000122  00000+0  77601-4 0  9995
2 33396  98.6965 205.6877 0001231  0.0000 300.0000 14.20038023775053 
THEOS19                   
1 33396U 08049A   23257.11601157  .00000122  00000+0  77601-4 0  9995
2 33396  98.6965 257.0877 0001231  0.0000 300.0000 14.20038023775053 
THEOS20                  
1 33396U 08049A   23257.11601157  .00000122  00000+0  77601-4 0  9995
2 33396  98.6965 308.4877 0001231  0.0000 300.0000 14.20038023775053 
THEOS21                  
1 33396U 08049A   23257.11601157  .00000122  00000+0  77601-4 0  9995
2 33396  98.6965 359.8877 0001231  0.0000 300.0000 14.20038023775053 